{
  "type": "FeatureCollection",
  "features": [
    {
      "type": "Feature",
      "properties": {
        "id": "PRE-001",
        "nombre": "La Boquilla",
        "color": "#1d4ed8",
        "capacidad_mm3": 2893.5,
        "fuente": "aproximacion_circular",
        "nota": "Contorno circular aproximado por radio conocido (mapaSatelital.ts VASOS_CONOCIDOS), no un levantamiento batimétrico. El contorno preciso se calcula en runtime vía detectaSuperficieVaso() (NDWI) en el panel Manejo de Vaso."
      },
      "geometry": {
        "type": "Polygon",
        "coordinates": [
          [
            [
              -105.17406380159095,
              27.5517
            ],
            [
              -105.17912565427501,
              27.597265472263917
            ],
            [
              -105.19411668816728,
              27.641079888982144
            ],
            [
              -105.21846080624236,
              27.681459486691608
            ],
            [
              -105.25122247769495,
              27.71685250009747
            ],
            [
              -105.29114268986409,
              27.745898795543173
            ],
            [
              -105.33668733138362,
              27.767482140184097
            ],
            [
              -105.38610614722167,
              27.78077309818976
            ],
            [
              -105.4375,
              27.785260905497665
            ],
            [
              -105.48889385277833,
              27.78077309818976
            ],
            [
              -105.53831266861638,
              27.767482140184097
            ],
            [
              -105.58385731013591,
              27.745898795543173
            ],
            [
              -105.62377752230505,
              27.71685250009747
            ],
            [
              -105.65653919375764,
              27.681459486691608
            ],
            [
              -105.68088331183272,
              27.641079888982144
            ],
            [
              -105.69587434572499,
              27.597265472263917
            ],
            [
              -105.70093619840905,
              27.5517
            ],
            [
              -105.69587434572499,
              27.506134527736084
            ],
            [
              -105.68088331183272,
              27.462320111017856
            ],
            [
              -105.65653919375764,
              27.421940513308392
            ],
            [
              -105.62377752230505,
              27.38654749990253
            ],
            [
              -105.58385731013591,
              27.357501204456828
            ],
            [
              -105.53831266861638,
              27.335917859815904
            ],
            [
              -105.48889385277833,
              27.322626901810242
            ],
            [
              -105.4375,
              27.318139094502335
            ],
            [
              -105.38610614722167,
              27.322626901810242
            ],
            [
              -105.33668733138362,
              27.335917859815904
            ],
            [
              -105.29114268986409,
              27.357501204456828
            ],
            [
              -105.25122247769495,
              27.38654749990253
            ],
            [
              -105.21846080624236,
              27.421940513308392
            ],
            [
              -105.19411668816728,
              27.462320111017856
            ],
            [
              -105.17912565427501,
              27.506134527736084
            ],
            [
              -105.17406380159095,
              27.5517
            ]
          ]
        ]
      }
    },
    {
      "type": "Feature",
      "properties": {
        "id": "PRE-002",
        "nombre": "Fco. I. Madero",
        "color": "#1d4ed8",
        "capacidad_mm3": 452.9,
        "fuente": "aproximacion_circular",
        "nota": "Contorno circular aproximado por radio conocido (mapaSatelital.ts VASOS_CONOCIDOS), no un levantamiento batimétrico. El contorno preciso se calcula en runtime vía detectaSuperficieVaso() (NDWI) en el panel Manejo de Vaso."
      },
      "geometry": {
        "type": "Polygon",
        "coordinates": [
          [
            [
              -105.40532751437458,
              28.3364
            ],
            [
              -105.40768078884419,
              28.357430217967963
            ],
            [
              -105.41465017723489,
              28.3776522564533
            ],
            [
              -105.42596784985929,
              28.396288993857667
            ],
            [
              -105.44119887490548,
              28.412624230814217
            ],
            [
              -105.4597579326226,
              28.42603021332762
            ],
            [
              -105.48093180883058,
              28.435991757008043
            ],
            [
              -105.50390680334122,
              28.44212604531835
            ],
            [
              -105.5278,
              28.444197340998922
            ],
            [
              -105.55169319665877,
              28.44212604531835
            ],
            [
              -105.57466819116942,
              28.435991757008043
            ],
            [
              -105.5958420673774,
              28.42603021332762
            ],
            [
              -105.61440112509452,
              28.412624230814217
            ],
            [
              -105.62963215014071,
              28.396288993857667
            ],
            [
              -105.64094982276511,
              28.3776522564533
            ],
            [
              -105.64791921115581,
              28.357430217967963
            ],
            [
              -105.65027248562542,
              28.3364
            ],
            [
              -105.64791921115581,
              28.31536978203204
            ],
            [
              -105.64094982276511,
              28.295147743546703
            ],
            [
              -105.62963215014071,
              28.276511006142336
            ],
            [
              -105.61440112509452,
              28.260175769185786
            ],
            [
              -105.5958420673774,
              28.24676978667238
            ],
            [
              -105.57466819116942,
              28.23680824299196
            ],
            [
              -105.55169319665877,
              28.230673954681652
            ],
            [
              -105.5278,
              28.22860265900108
            ],
            [
              -105.50390680334122,
              28.230673954681652
            ],
            [
              -105.48093180883058,
              28.23680824299196
            ],
            [
              -105.4597579326226,
              28.24676978667238
            ],
            [
              -105.44119887490548,
              28.260175769185786
            ],
            [
              -105.42596784985929,
              28.276511006142336
            ],
            [
              -105.41465017723489,
              28.295147743546703
            ],
            [
              -105.40768078884419,
              28.31536978203204
            ],
            [
              -105.40532751437458,
              28.3364
            ]
          ]
        ]
      }
    }
  ]
}